{ "version": 0.6, "generator": "Overpass API", "osm3s": { "timestamp_osm_base": "2016-12-31T18:35:03Z", "copyright": "The data included in this document is from www.openstreetmap.org. The data is made available under ODbL." }, "elements": [ { "type": "way", "id": 24663862, "nodes": [ 1490010867, 268084183, 2484247026, 2484247029, 268084186, 1490010851, 268084179, 268084543, 268084180, 1936017207, 1936017212, 268084181, 268084182, 1490010867 ], "tags": { "building": "yes", "name": "St. Anns Centre", "shop": "mall" } }, { "type": "way", "id": 29333696, "nodes": [ 322702633, 1226107958, 1226108143, 2900011830, 2900011826, 2900011828, 2900011827, 2900011825, 2900011823, 2900011822, 2900011821, 2900011818, 2900011817, 2900011809, 2900011801, 2900011696, 1226108038, 1226108089, 1226107971, 2900011677, 2900011674, 2900011671, 2900011668, 322702631, 1226107942, 1226108070, 1226107997, 2900011685, 2900011649, 2900011647, 2900011648, 2900011650, 2900011651, 2900011652, 2900011654, 2900011656, 2900011657, 2900011699, 2900011806, 2900011665, 2900011662, 2900011664, 2900011667, 2900011670, 2900011676, 2900011678, 2900011679, 2900011680, 2900011819, 2900011829, 2900011688, 2900011687, 2900011689, 2900011690, 2900011691, 2900011694, 2900011697, 2900011698, 2900011700, 2900011831, 2900011832, 1936017185, 322702632, 2900011836, 322702633 ], "tags": { "addr:postcode": "HA1 1BB", "addr:street": "Station Approach", "building": "station", "line": "Metropolitan", "name": "Harrow-on-the-Hill", "naptan:AtcoCode": "9100HAROOTH", "network:subway": "London Underground", "network:train": "National Rail", "operator": "Transport for London", "public_transport": "station", "railway": "station", "ref": "HOH", "source": "Survey of 2014-06-04, aligned to Bing (offset)", "wheelchair": "limited", "wikipedia": "en:Harrow-on-the-Hill station", "zone": "5" } }, { "type": "way", "id": 135704908, "nodes": [ 268084182, 1490010867, 1490010866, 1490010852, 1490010851, 268084179, 268084180, 1936017207, 1936017212, 268084181, 268084182 ], "tags": { "amenity": "parking", "building": "yes", "description": "This car park is accessed through 2 sets of 2 lifts. The lifts are Schindler MRLs.", "fee": "yes", "layer": "2", "name": "Saint Anns Centre", "parking": "multi-storey", "surface": "asphalt", "wheelchair": "yes" } }, { "type": "way", "id": 135704912, "nodes": [ 1490010836, 1490010820, 1490010821, 1490010816, 1490010814, 1490010813, 1490010818, 1490010819, 1490010822, 1490010824, 1490010835, 1490010836 ], "tags": { "addr:city": "Harrow", "addr:housenumber": "15", "addr:postcode": "HA1 1BA", "addr:street": "College Road", "building": "disused", "fixme": "SIgns are up saying demolition is about to start. However, it looks like this is really landuse=white_elephant!" } }, { "type": "way", "id": 135704914, "nodes": [ 2308089676, 2308089678, 1490010857, 1490010861, 1490010860, 1490010853, 1490010854, 1490010855, 2308089676 ], "tags": { "addr:housename": "Queen's House", "building": "yes" } }, { "type": "way", "id": 135704922, "nodes": [ 1490010833, 1490010830, 1490010827, 1490010832, 2493885131, 2493885132, 2493885143, 2493885127, 2493885182, 2493885158, 2493885139, 1490010833 ], "tags": { "building": "yes", "building:levels": "3" } }, { "type": "way", "id": 135704929, "nodes": [ 1490010842, 1490010840, 1490010831, 1490010826, 1226107903, 1490010825, 1490010829, 1490010838, 1490010841, 1490010842 ], "tags": { "addr:housenumber": "79", "addr:street": "College Road", "building": "yes", "building:levels": "6", "fixme": "Should this be level, rather than layer. Alignment.", "layer": "1", "note": "This really does overlap the bus station." } }, { "type": "way", "id": 137550916, "nodes": [ 1508674868, 1508674864, 1508674863, 1508674865, 1508674866, 2609621334, 2609621339, 1508674869, 1508674872, 1508674867, 1508674868 ], "tags": { "building": "yes", "name": "Marks & Spencer", "opening_hours": "O: 8AM (9 Sat, 11 Sun). C: 6PM (7 Thur, 5 Sun)", "phone": "02088 61 06 61", "shop": "department_store", "wheelchair": "yes" } }, { "type": "way", "id": 183230595, "nodes": [ 1936017185, 1936017184, 1936017186, 1936017188, 1490010841, 1490010838, 1490010829, 1490010825, 1226107903, 322702633, 2900011836, 322702632, 1936017185 ], "tags": { "building": "yes" } }, { "type": "way", "id": 204868110, "nodes": [ 2148455385, 2148455384, 2148455382, 2148455383, 2148455385 ], "tags": { "building": "retail", "building:levels": "3", "source": "Bing" } }, { "type": "way", "id": 211058070, "nodes": [ 2210692181, 2210692180, 4581148301, 2210692177, 2210692175, 2210692174, 2210692185, 2210692186, 2210692192, 2210692194, 2210692189, 2210692191, 2210692183, 2210692188, 2210692181 ], "tags": { "addr:housename": "Roxborough Heights", "building": "apartments" } }, { "type": "way", "id": 221806729, "nodes": [ 2308089678, 2308089676, 1490010856, 1490010848, 1490010849, 2308089675, 1490010863, 1490010862, 1490010858, 2308089678 ], "tags": { "addr:housename": "King's House", "building": "yes", "building:levels": "8" } }, { "type": "way", "id": 232284536, "nodes": [ 2406458852, 2406458854, 2406458856, 2406458858, 2406458859, 2406458855, 3764241097, 2406458857, 2406458853, 2406458850, 2406458851, 2406458849, 2406458848, 2406458846, 2406458845, 2406458847, 2406458852 ], "tags": { "addr:city": "Harrow", "addr:housename": "First National House", "addr:housenumber": "53-61", "addr:postcode": "HA1 1FB", "addr:street": "College Road", "building": "disused", "building:levels": "9", "note": "Hoarded up. Sign says planning permission secured for mixed use development." } }, { "type": "way", "id": 238471040, "nodes": [ 2463041529, 2463041527, 2463041528, 2463041525, 2463041526, 2463041522, 2463041524, 2463041521, 2463041523, 2463041532, 322135319, 2463041531, 2463041530, 2493885280, 2463041529 ], "tags": { "amenity": "place_of_worship", "building": "church", "denomination": "baptist", "name": "Harrow Baptist Church", "name:ko": "í•œì¸ì„±ê²°êµíšŒ", "note": "I think the Korean church is sharing the building, rather than being a straight translation.", "phone": "+44 20 8863 7837", "religion": "christian", "source": "survey;Bing 2012;OS_OpenData_StreetView", "survey:date": "2013-09-18", "website": "http://www.harrow-baptist.org.uk" } }, { "type": "way", "id": 241798714, "nodes": [ 2493885314, 2493885280, 2463041529, 2493885277, 2493885283, 2493885286, 2493885302, 2493885301, 2493885308, 2493885310, 2493885313, 2493885314 ], "tags": { "addr:housename": "Amba House", "building": "yes" } }, { "type": "way", "id": 241798716, "nodes": [ 2493885357, 2493885342, 2493885337, 2493885353, 2493885357 ], "tags": { "addr:housename": "Granville Parade", "building": "yes", "building:levels": "3" } }, { "type": "way", "id": 241798718, "nodes": [ 2493885365, 2493885343, 2493885345, 2493885349, 2493885352, 2493885366, 2493885365 ], "tags": { "addr:housename": "Scottish Provident House", "building": "yes", "building:levels": "5" } }, { "type": "way", "id": 241798720, "nodes": [ 2493885351, 2493885333, 4226677150, 1508663645, 2493885350, 2493885351 ], "tags": { "building": "yes", "building:levels": "1", "shop": "vacant" } }, { "type": "way", "id": 241798736, "nodes": [ 2493885363, 2493885335, 1508663635, 1508663616, 1508663651, 2493885333, 2493885351, 2493885361, 2493885363 ], "tags": { "building": "yes", "building:levels": "4" } }, { "type": "way", "id": 241798744, "nodes": [ 2493885356, 2493885336, 2493885334, 2493885358, 2493885359, 2493885355, 2493885356 ], "tags": { "building": "yes", "building:levels": "3" } }, { "type": "way", "id": 289168062, "nodes": [ 2927229371, 2927229369, 2927229367, 2927229368, 2927229370, 2927229375, 2927229376, 2927229374, 2927229373, 2927229372, 2927229371 ], "tags": { "addr:housename": "Bradstowe House", "building": "yes", "website": "http://www.bradstowehouse.com" } }, { "type": "way", "id": 289168063, "nodes": [ 2927229363, 2927229348, 2927229349, 2927229355, 2927229356, 2927229358, 2927229357, 2927229364, 2927229363 ], "tags": { "addr:housename": "Cervantes House", "building": "yes" } }, { "type": "way", "id": 289168064, "nodes": [ 2927229361, 2927229360, 2927229351, 2927229352, 2210692191, 2210692189, 2210692194, 2927229353, 2927229354, 2927229362, 2927229361 ], "tags": { "addr:housename": "Genesis Flats", "building": "yes" } }, { "type": "way", "id": 289168065, "nodes": [ 2927229365, 2927229359, 2927229360, 2927229361, 2927229362, 2927229366, 2927229365 ], "tags": { "addr:housename": "Kelly House", "addr:housenumber": "8", "addr:postcode": "HA1 1PD", "addr:street": "Headstone Road", "building": "yes", "name": "Kelly Group", "website": "http://www.kelly.co.uk/" } }, { "type": "way", "id": 462773256, "nodes": [ 4581126534, 4581126533, 4581126532, 4581126535, 4581126534 ], "tags": { "building": "yes", "source": "bing" } }, { "type": "way", "id": 462775634, "nodes": [ 4581148299, 4581148302, 2210692181, 2210692180, 4581148301, 4581148305, 4581148304, 4581148298, 4581148300, 4581148303, 4581148299 ], "tags": { "building": "yes", "source": "bing" } } ] } 